IRIDIUM 33 DEB          
1 34765U 97051LJ  26061.78476622  .00001699  00000+0  52504-3 0  9997
2 34765  86.3440 358.4112 0015195 322.3065  67.1190 14.40729708887669
IRIDIUM 33 DEB          
1 34833U 97051MH  26062.08185504  .00004017  00000+0  96701-3 0  9997
2 34833  86.3964  16.3437 0018823 180.0009 303.1126 14.52988623888810
IRIDIUM 33 DEB          
1 34870U 97051MQ  26061.88326943  .00009814  00000+0  13451-2 0  9999
2 34870  86.3060 277.3223 0014730 275.7378 144.8425 14.78283800900948
IRIDIUM 33 DEB          
1 34896U 97051MY  26061.94884556  .00004677  00000+0  82332-3 0  9990
2 34896  86.3266 290.6953 0024343 307.1937 116.6925 14.67216364887950
IRIDIUM 33 DEB          
1 34926U 97051NF  26061.73849561  .00027960  00000+0  57144-2 0  9990
2 34926  86.1332 331.0601 0080504  23.3655  38.6669 14.58672166876212
IRIDIUM 33 DEB          
1 34985U 97051NR  26061.34677608  .00003258  00000+0  97710-3 0  9991
2 34985  86.3717  22.8955 0020346 328.6874 182.6562 14.42422402883225
IRIDIUM 33 DEB          
1 35051U 97051NX  26061.02151450  .00002446  00000+0  65270-3 0  9997
2 35051  86.3285 334.3098 0007727 169.1951 190.9420 14.48066283881434
IRIDIUM 33 DEB          
1 35052U 97051NY  26061.22550581  .00000727  00000+0  23089-3 0  9990
2 35052  86.3361 346.4096 0011353 171.5022 188.6371 14.38616914884183
IRIDIUM 33 DEB          
1 35080U 97051PF  26061.84822801  .00127949  00000+0  94357-2 0  9997
2 35080  86.2064  13.6867 0029851 245.5617 114.2502 15.02330738708833
IRIDIUM 33 DEB          
1 35297U 97051PM  26057.20058014  .00002247  00000+0  63111-3 0  9997
2 35297  86.3869  30.5259 0012987 253.5255 106.4520 14.45550738715166
IRIDIUM 33 DEB          
1 35299U 97051PP  26061.81018280  .00004641  00000+0  13966-2 0  9994
2 35299  86.2921 358.3115 0053525 196.4433 193.3005 14.41609681874846
IRIDIUM 33 DEB          
1 35480U 97051QA  26061.23131842  .00002995  00000+0  76407-3 0  9992
2 35480  86.3616 350.4456 0012511 190.4902 169.6043 14.50243832881833
IRIDIUM 33 DEB          
1 35484U 97051QE  26050.19184175  .00037506  00000+0  25740-2 0  9995
2 35484  86.3587 320.5585 0011587 239.1626 120.8470 15.05777687630433
IRIDIUM 33 DEB          
1 35488U 97051QJ  26061.97972575  .00012039  00000+0  13929-2 0  9996
2 35488  86.3195 263.8144 0027382 113.1612 247.2501 14.85163369894566
IRIDIUM 33 DEB          
1 35616U 97051QN  26062.00372992  .00013776  00000+0  16284-2 0  9997
2 35616  86.3536 309.0606 0006782 263.3407  96.7045 14.84547005887648
IRIDIUM 33 DEB          
1 35618U 97051QQ  26060.98682220  .00001776  00000+0  42564-3 0  9990
2 35618  86.3424 318.8529 0030481 109.2412 251.2096 14.52702392665448
